{
  "norad_id": 62799,
  "name": "QIANFAN-69",
  "history": [
    {
      "epoch": "2026-03-28T21:43:11.167104Z",
      "apogee_km": 1081.4308379242711,
      "perigee_km": 1055.684635541491,
      "latitude_deg": -2.1819205410873826e-05,
      "longitude_deg": -60.17286512239892,
      "height_km": 1062.2420610780948,
      "semi_major_axis_km": 7446.694736732881,
      "eccentricity": 0.0017287,
      "inclination_deg": 88.9654,
      "raan_deg": 91.9424,
      "arg_perigee_deg": 44.1401,
      "mean_anomaly_deg": 316.1126,
      "mean_motion_rev_day": 13.5100649
    },
    {
      "epoch": "2026-03-29T03:03:08.245728Z",
      "apogee_km": 1081.4181895861793,
      "perigee_km": 1055.697305927427,
      "latitude_deg": 3.927634238333287e-05,
      "longitude_deg": -140.40289048733476,
      "height_km": 1062.1626959327577,
      "semi_major_axis_km": 7446.694747756803,
      "eccentricity": 0.001727,
      "inclination_deg": 88.9654,
      "raan_deg": 91.9192,
      "arg_perigee_deg": 43.5686,
      "mean_anomaly_deg": 316.6826,
      "mean_motion_rev_day": 13.51006487
    },
    {
      "epoch": "2026-03-30T05:42:53.623296Z",
      "apogee_km": 1081.3576530447617,
      "perigee_km": 1055.7569605551862,
      "latitude_deg": -1.340846475083634e-05,
      "longitude_deg": 178.4470418113411,
      "height_km": 1061.7674505270095,
      "semi_major_axis_km": 7446.694306799974,
      "eccentricity": 0.00171893,
      "inclination_deg": 88.9655,
      "raan_deg": 91.8032,
      "arg_perigee_deg": 40.6267,
      "mean_anomaly_deg": 319.6163,
      "mean_motion_rev_day": 13.51006607
    },
    {
      "epoch": "2026-03-30T12:49:29.721792Z",
      "apogee_km": 1081.3392347911913,
      "perigee_km": 1055.7751803782048,
      "latitude_deg": -2.354296580060997e-05,
      "longitude_deg": 71.47373312369992,
      "height_km": 1061.666164667111,
      "semi_major_axis_km": 7446.694207584697,
      "eccentricity": 0.00171647,
      "inclination_deg": 88.9655,
      "raan_deg": 91.7723,
      "arg_perigee_deg": 39.8236,
      "mean_anomaly_deg": 320.4171,
      "mean_motion_rev_day": 13.51006634
    },
    {
      "epoch": "2026-03-30T19:56:05.821152Z",
      "apogee_km": 1081.323546048353,
      "perigee_km": 1055.7906192455375,
      "latitude_deg": 5.557812594696787e-05,
      "longitude_deg": -35.49957757036705,
      "height_km": 1061.5703563762195,
      "semi_major_axis_km": 7446.694082646945,
      "eccentricity": 0.00171438,
      "inclination_deg": 88.9655,
      "raan_deg": 91.7414,
      "arg_perigee_deg": 39.0593,
      "mean_anomaly_deg": 321.1793,
      "mean_motion_rev_day": 13.51006668
    },
    {
      "epoch": "2026-03-31T19:02:33.134784Z",
      "apogee_km": 1081.264678372555,
      "perigee_km": 1055.8491121080997,
      "latitude_deg": -2.667947507433888e-05,
      "longitude_deg": -23.162979420380257,
      "height_km": 1061.2631348085583,
      "semi_major_axis_km": 7446.693895240327,
      "eccentricity": 0.0017065,
      "inclination_deg": 88.9655,
      "raan_deg": 91.6408,
      "arg_perigee_deg": 36.4479,
      "mean_anomaly_deg": 323.783,
      "mean_motion_rev_day": 13.51006719
    },
    {
      "epoch": "2026-04-01T19:55:39.463968Z",
      "apogee_km": 1081.2034535238936,
      "perigee_km": 1055.9100135884964,
      "latitude_deg": -3.1503974738898774e-05,
      "longitude_deg": -37.56954418366971,
      "height_km": 1060.9614539885679,
      "semi_major_axis_km": 7446.693733556195,
      "eccentricity": 0.0016983,
      "inclination_deg": 88.9656,
      "raan_deg": 91.5326,
      "arg_perigee_deg": 33.6656,
      "mean_anomaly_deg": 326.557,
      "mean_motion_rev_day": 13.51006763
    },
    {
      "epoch": "2026-04-02T19:02:06.768096Z",
      "apogee_km": 1081.144425877459,
      "perigee_km": 1055.9686443739065,
      "latitude_deg": 2.5461152245482225e-05,
      "longitude_deg": -25.232904370999453,
      "height_km": 1060.7129583045898,
      "semi_major_axis_km": 7446.6935351256825,
      "eccentricity": 0.0016904,
      "inclination_deg": 88.9657,
      "raan_deg": 91.432,
      "arg_perigee_deg": 31.1241,
      "mean_anomaly_deg": 329.0908,
      "mean_motion_rev_day": 13.51006817
    },
    {
      "epoch": "2026-04-02T22:35:24.812160Z",
      "apogee_km": 1081.1352166125953,
      "perigee_km": 1055.9774567777704,
      "latitude_deg": -4.6366217660972785e-05,
      "longitude_deg": -78.71948832250763,
      "height_km": 1060.6757314608574,
      "semi_major_axis_km": 7446.693336695183,
      "eccentricity": 0.00168919,
      "inclination_deg": 88.9657,
      "raan_deg": 91.4166,
      "arg_perigee_deg": 30.7248,
      "mean_anomaly_deg": 329.4888,
      "mean_motion_rev_day": 13.51006871
    },
    {
      "epoch": "2026-04-03T19:55:13.080000Z",
      "apogee_km": 1081.0761566943775,
      "perigee_km": 1056.0359067059826,
      "latitude_deg": -3.1083892050390112e-06,
      "longitude_deg": -39.63939859538896,
      "height_km": 1060.4740939625137,
      "semi_major_axis_km": 7446.69303170018,
      "eccentricity": 0.0016813,
      "inclination_deg": 88.9658,
      "raan_deg": 91.3238,
      "arg_perigee_deg": 28.3719,
      "mean_anomaly_deg": 331.8344,
      "mean_motion_rev_day": 13.51006954
    },
    {
      "epoch": "2026-04-04T19:01:40.369440Z",
      "apogee_km": 1081.011455123049,
      "perigee_km": 1056.1007773106794,
      "latitude_deg": 7.180967065902738e-05,
      "longitude_deg": -27.302498622211797,
      "height_km": 1060.270842820872,
      "semi_major_axis_km": 7446.693116216864,
      "eccentricity": 0.0016726,
      "inclination_deg": 88.9658,
      "raan_deg": 91.2234,
      "arg_perigee_deg": 25.719,
      "mean_anomaly_deg": 334.479,
      "mean_motion_rev_day": 13.51006931
    },
    {
      "epoch": "2026-04-05T12:48:10.584576Z",
      "apogee_km": 1080.961463750381,
      "perigee_km": 1056.1504232673387,
      "latitude_deg": 3.2090247320845416e-05,
      "longitude_deg": 65.26430734695823,
      "height_km": 1060.1280044807406,
      "semi_major_axis_km": 7446.69294350886,
      "eccentricity": 0.00166591,
      "inclination_deg": 88.9659,
      "raan_deg": 91.1461,
      "arg_perigee_deg": 23.6278,
      "mean_anomaly_deg": 336.5635,
      "mean_motion_rev_day": 13.51006978
    },
    {
      "epoch": "2026-04-05T19:54:46.666656Z",
      "apogee_km": 1080.9403692287342,
      "perigee_km": 1056.1711797222742,
      "latitude_deg": 5.791624940316479e-05,
      "longitude_deg": -41.70893298057404,
      "height_km": 1060.0779178954404,
      "semi_major_axis_km": 7446.692774475504,
      "eccentricity": 0.0016631,
      "inclination_deg": 88.9659,
      "raan_deg": 91.1152,
      "arg_perigee_deg": 22.8106,
      "mean_anomaly_deg": 337.3781,
      "mean_motion_rev_day": 13.51007024
    },
    {
      "epoch": "2026-04-06T04:48:01.772064Z",
      "apogee_km": 1080.9152158344823,
      "perigee_km": 1056.1960685425893,
      "latitude_deg": 4.666604698199182e-05,
      "longitude_deg": -175.4255710418941,
      "height_km": 1060.0178139359534,
      "semi_major_axis_km": 7446.6926421885355,
      "eccentricity": 0.00165974,
      "inclination_deg": 88.966,
      "raan_deg": 91.0765,
      "arg_perigee_deg": 21.7877,
      "mean_anomaly_deg": 338.3977,
      "mean_motion_rev_day": 13.5100706
    },
    {
      "epoch": "2026-04-07T12:47:44.154816Z",
      "apogee_km": 1080.8210921988411,
      "perigee_km": 1056.2897512216969,
      "latitude_deg": 2.650811676217508e-05,
      "longitude_deg": 63.19473792202658,
      "height_km": 1059.8414465980156,
      "semi_major_axis_km": 7446.692421710269,
      "eccentricity": 0.00164713,
      "inclination_deg": 88.966,
      "raan_deg": 90.9374,
      "arg_perigee_deg": 18.1529,
      "mean_anomaly_deg": 342.0207,
      "mean_motion_rev_day": 13.5100712
    },
    {
      "epoch": "2026-04-07T19:54:20.238624Z",
      "apogee_km": 1080.800010697928,
      "perigee_km": 1056.3108180240606,
      "latitude_deg": 1.7408787722262693e-05,
      "longitude_deg": -43.77851059040324,
      "height_km": 1059.8101112858756,
      "semi_major_axis_km": 7446.692414360994,
      "eccentricity": 0.0016443,
      "inclination_deg": 88.966,
      "raan_deg": 90.9065,
      "arg_perigee_deg": 17.3572,
      "mean_anomaly_deg": 342.8138,
      "mean_motion_rev_day": 13.51007122
    },
    {
      "epoch": "2026-04-08T13:40:50.447712Z",
      "apogee_km": 1080.7469231423202,
      "perigee_km": 1056.3639202782178,
      "latitude_deg": 4.915383704881121e-05,
      "longitude_deg": 48.78832082299694,
      "height_km": 1059.7402306447225,
      "semi_major_axis_km": 7446.692421710269,
      "eccentricity": 0.00163717,
      "inclination_deg": 88.9661,
      "raan_deg": 90.8292,
      "arg_perigee_deg": 15.3223,
      "mean_anomaly_deg": 344.8421,
      "mean_motion_rev_day": 13.5100712
    },
    {
      "epoch": "2026-04-09T19:53:53.791584Z",
      "apogee_km": 1080.6542517852795,
      "perigee_km": 1056.4554818947954,
      "latitude_deg": 1.7961819817068476e-05,
      "longitude_deg": -45.848008827620845,
      "height_km": 1059.6564504698697,
      "semi_major_axis_km": 7446.691866840037,
      "eccentricity": 0.0016248,
      "inclination_deg": 88.9661,
      "raan_deg": 90.6978,
      "arg_perigee_deg": 11.8061,
      "mean_anomaly_deg": 348.3468,
      "mean_motion_rev_day": 13.51007271
    },
    {
      "epoch": "2026-04-10T04:47:08.890944Z",
      "apogee_km": 1080.6223873052722,
      "perigee_km": 1056.4873610733503,
      "latitude_deg": 2.46432087795312e-05,
      "longitude_deg": -179.5645214693916,
      "height_km": 1059.646534050821,
      "semi_major_axis_km": 7446.691874189311,
      "eccentricity": 0.00162052,
      "inclination_deg": 88.9661,
      "raan_deg": 90.6592,
      "arg_perigee_deg": 10.7961,
      "mean_anomaly_deg": 349.3535,
      "mean_motion_rev_day": 13.51007269
    }
  ]
}